UNKNOWN                 
1 82381U          26026.86952858  .00040481  00000+0  49093-2 0  9992
2 82381  98.3935 258.8087 0010462   0.8859 359.2369 14.83393449517493
UNKNOWN                 
1 82402U          26027.28448977  .00010912  00000+0  78168-3 0  9997
2 82402  86.6646 135.9305 0008065  14.7098 345.4370 15.04262165461311
UNKNOWN                 
1 82432U          26016.43276129  .00001229  00000+0  26452-3 0  9993
2 82432  74.0067 274.4084 0054449  69.8652 290.8360 14.58714109487968
UNKNOWN                 
1 82448U          26027.66046398  .00010827  00000+0  77135-3 0  9998
2 82448  85.8734 174.7870 0010712  93.6699 266.5760 15.04439479443942
UNKNOWN                 
1 82484U          26023.51063246  .00000156  00000+0  28021-3 0  9993
2 82484  99.3540  47.9830 0045493  89.3977 271.2374 13.55815790596298
UNKNOWN                 
1 82494U          26025.73511469  .00030460  00000+0  33035-2 0  9996
2 82494  74.0071 294.0663 0002872  73.0717 287.0778 14.88040723 91503
UNKNOWN                 
1 82500U          26017.01775902  .00003580  00000+0  16322-2 0  9993
2 82500  70.9668 289.1757 0115367  61.1040 300.1600 14.18787304623955
UNKNOWN                 
1 82524U          26025.64498566  .00014939  00000+0  46701-2 0  9999
2 82524  73.2826  97.5230 0135570 225.0852 289.2237 14.35586640583339
UNKNOWN                 
1 82529U          26023.02522115  .00000569  00000+0  93043-3 0  9998
2 82529  99.7855 110.1163 0239419 140.1937  33.5886 13.41152401595270
